ONEWEB-0522             
1 54140U 22138AD  25254.28831957  .00000043  00000+0  74588-4 0  9993
2 54140  87.9284   0.3940 0001714 100.1561 259.9765 13.19725774140023
ONEWEB-0523             
1 54141U 22138AE  25254.16974891  .00000102  00000+0  21853-3 0  9998
2 54141  87.9281 330.0681 0002686 109.3174 250.8250 13.20771099142479
ONEWEB-0524             
1 54142U 22138AF  25253.70413560  .00000068  00000+0  13545-3 0  9999
2 54142  87.9283 330.1612 0002035 126.4524 233.6797 13.20773568142416
ONEWEB-0525             
1 54143U 22138AG  25254.23144107  .00000079  00000+0  16469-3 0  9997
2 54143  87.9288   0.4263 0001527  96.5264 263.6042 13.19727866140034
ONEWEB-0526             
1 54144U 22138AH  25254.26461283  .00000078  00000+0  16291-3 0  9990
2 54144  87.9287   0.4070 0001713 100.1840 259.9486 13.19724123140010
ONEWEB-0529             
1 54145U 22138AJ  25254.26777818  .00000066  00000+0  13343-3 0  9997
2 54145  87.9278   0.4461 0001549  97.9730 262.1579 13.19723889140032
ONEWEB-0531             
1 54146U 22138AK  25254.22023200  .00000056  00000+0  10637-3 0  9995
2 54146  87.9272 330.0502 0002587 114.9855 245.1547 13.20770742142485
ONEWEB-0535             
1 54147U 22138AL  25253.84604452  .00000027  00000+0  36294-4 0  9993
2 54147  87.9285   0.4853 0002168 103.3546 256.7829 13.19725341139997
ONEWEB-0536             
1 54148U 22138AM  25253.75306602 -.00000030  00000+0 -10693-3 0  9990
2 54148  87.9276 330.1901 0002526 121.1700 238.9681 13.20770849142417
ONEWEB-0527             
1 54642U 22166A   25254.07872435  .00000084  00000+0  17273-3 0  9996
2 54642  87.9210 299.7003 0001868  96.7624 263.3722 13.21824112134667
ONEWEB-0528             
1 54643U 22166B   25253.85793052  .00000102  00000+0  21638-3 0  9990
2 54643  87.9217 299.7466 0001851  95.8948 264.2397 13.21822175134642
ONEWEB-0539             
1 54644U 22166C   25253.89424423  .00000067  00000+0  13102-3 0  9995
2 54644  87.9206 299.7076 0001991  89.6237 270.5126 13.21825073134645
ONEWEB-0540             
1 54645U 22166D   25254.05206858  .00000001  00000+0 -28879-4 0  9992
2 54645  87.9209 299.7128 0002028  88.7702 271.3664 13.21824528134657
ONEWEB-0542             
1 54646U 22166E   25254.13077260  .00000044  00000+0  74633-4 0  9990
2 54646  87.9205 299.6574 0002178  87.8932 272.2451 13.21823729134677
ONEWEB-0545             
1 54647U 22166F   25253.64346040 -.00000009  00000+0 -53304-4 0  9996
2 54647  87.9213 299.7738 0002136  81.1262 279.0114 13.21822654134573
ONEWEB-0580             
1 54648U 22166G   25254.07085878  .00000068  00000+0  13430-3 0  9992
2 54648  87.9212 299.6865 0002254  89.0429 271.0963 13.21824132134674
ONEWEB-0582             
1 54649U 22166H   25254.11342253 -.00000007  00000+0 -49389-4 0  9999
2 54649  87.9203 299.6725 0002326  86.7736 273.3664 13.21822837134656
