[{"OBJECT_NAME":"ONEWEB-0522","OBJECT_ID":"2022-138AD","EPOCH":"2025-09-11T06:55:10.810848","MEAN_MOTION":13.19725774,"ECCENTRICITY":0.00017144,"INCLINATION":87.9284,"RA_OF_ASC_NODE":0.394,"ARG_OF_PERICENTER":100.1561,"MEAN_ANOMALY":259.9765,"EPHEMERIS_TYPE":0,"CLASSIFICATION_TYPE":"U","NORAD_CAT_ID":54140,"ELEMENT_SET_NO":999,"REV_AT_EPOCH":14002,"BSTAR":7.4587932e-5,"MEAN_MOTION_DOT":4.3e-7,"MEAN_MOTION_DDOT":0},{"OBJECT_NAME":"ONEWEB-0523","OBJECT_ID":"2022-138AE","EPOCH":"2025-09-11T04:04:26.305824","MEAN_MOTION":13.20771099,"ECCENTRICITY":0.00026861,"INCLINATION":87.9281,"RA_OF_ASC_NODE":330.0681,"ARG_OF_PERICENTER":109.3174,"MEAN_ANOMALY":250.825,"EPHEMERIS_TYPE":0,"CLASSIFICATION_TYPE":"U","NORAD_CAT_ID":54141,"ELEMENT_SET_NO":999,"REV_AT_EPOCH":14247,"BSTAR":0.00021853202,"MEAN_MOTION_DOT":1.02e-6,"MEAN_MOTION_DDOT":0},{"OBJECT_NAME":"ONEWEB-0524","OBJECT_ID":"2022-138AF","EPOCH":"2025-09-10T16:53:57.315840","MEAN_MOTION":13.20773568,"ECCENTRICITY":0.0002035,"INCLINATION":87.9283,"RA_OF_ASC_NODE":330.1612,"ARG_OF_PERICENTER":126.4524,"MEAN_ANOMALY":233.6797,"EPHEMERIS_TYPE":0,"CLASSIFICATION_TYPE":"U","NORAD_CAT_ID":54142,"ELEMENT_SET_NO":999,"REV_AT_EPOCH":14241,"BSTAR":0.00013545029,"MEAN_MOTION_DOT":6.8e-7,"MEAN_MOTION_DDOT":0},{"OBJECT_NAME":"ONEWEB-0525","OBJECT_ID":"2022-138AG","EPOCH":"2025-09-11T05:33:16.508448","MEAN_MOTION":13.19727866,"ECCENTRICITY":0.00015277,"INCLINATION":87.9288,"RA_OF_ASC_NODE":0.4263,"ARG_OF_PERICENTER":96.5264,"MEAN_ANOMALY":263.6042,"EPHEMERIS_TYPE":0,"CLASSIFICATION_TYPE":"U","NORAD_CAT_ID":54143,"ELEMENT_SET_NO":999,"REV_AT_EPOCH":14003,"BSTAR":0.00016469282,"MEAN_MOTION_DOT":7.9e-7,"MEAN_MOTION_DDOT":0},{"OBJECT_NAME":"ONEWEB-0526","OBJECT_ID":"2022-138AH","EPOCH":"2025-09-11T06:21:02.548512","MEAN_MOTION":13.19724123,"ECCENTRICITY":0.00017138,"INCLINATION":87.9287,"RA_OF_ASC_NODE":0.407,"ARG_OF_PERICENTER":100.184,"MEAN_ANOMALY":259.9486,"EPHEMERIS_TYPE":0,"CLASSIFICATION_TYPE":"U","NORAD_CAT_ID":54144,"ELEMENT_SET_NO":999,"REV_AT_EPOCH":14001,"BSTAR":0.00016290833,"MEAN_MOTION_DOT":7.8e-7,"MEAN_MOTION_DDOT":0},{"OBJECT_NAME":"ONEWEB-0529","OBJECT_ID":"2022-138AJ","EPOCH":"2025-09-11T06:25:36.034752","MEAN_MOTION":13.19723889,"ECCENTRICITY":0.00015498,"INCLINATION":87.9278,"RA_OF_ASC_NODE":0.4461,"ARG_OF_PERICENTER":97.973,"MEAN_ANOMALY":262.1579,"EPHEMERIS_TYPE":0,"CLASSIFICATION_TYPE":"U","NORAD_CAT_ID":54145,"ELEMENT_SET_NO":999,"REV_AT_EPOCH":14003,"BSTAR":0.00013342554,"MEAN_MOTION_DOT":6.6e-7,"MEAN_MOTION_DDOT":0},{"OBJECT_NAME":"ONEWEB-0531","OBJECT_ID":"2022-138AK","EPOCH":"2025-09-11T05:17:08.044800","MEAN_MOTION":13.20770742,"ECCENTRICITY":0.00025873,"INCLINATION":87.9272,"RA_OF_ASC_NODE":330.0502,"ARG_OF_PERICENTER":114.9855,"MEAN_ANOMALY":245.1547,"EPHEMERIS_TYPE":0,"CLASSIFICATION_TYPE":"U","NORAD_CAT_ID":54146,"ELEMENT_SET_NO":999,"REV_AT_EPOCH":14248,"BSTAR":0.00010637174,"MEAN_MOTION_DOT":5.6e-7,"MEAN_MOTION_DDOT":0},{"OBJECT_NAME":"ONEWEB-0535","OBJECT_ID":"2022-138AL","EPOCH":"2025-09-10T20:18:18.246528","MEAN_MOTION":13.19725341,"ECCENTRICITY":0.00021687,"INCLINATION":87.9285,"RA_OF_ASC_NODE":0.4853,"ARG_OF_PERICENTER":103.3546,"MEAN_ANOMALY":256.7829,"EPHEMERIS_TYPE":0,"CLASSIFICATION_TYPE":"U","NORAD_CAT_ID":54147,"ELEMENT_SET_NO":999,"REV_AT_EPOCH":13999,"BSTAR":3.6293696e-5,"MEAN_MOTION_DOT":2.7e-7,"MEAN_MOTION_DDOT":0},{"OBJECT_NAME":"ONEWEB-0536","OBJECT_ID":"2022-138AM","EPOCH":"2025-09-10T18:04:24.904128","MEAN_MOTION":13.20770849,"ECCENTRICITY":0.00025264,"INCLINATION":87.9276,"RA_OF_ASC_NODE":330.1901,"ARG_OF_PERICENTER":121.17,"MEAN_ANOMALY":238.9681,"EPHEMERIS_TYPE":0,"CLASSIFICATION_TYPE":"U","NORAD_CAT_ID":54148,"ELEMENT_SET_NO":999,"REV_AT_EPOCH":14241,"BSTAR":-0.0001069307,"MEAN_MOTION_DOT":-3.0e-7,"MEAN_MOTION_DDOT":0},{"OBJECT_NAME":"ONEWEB-0527","OBJECT_ID":"2022-166A","EPOCH":"2025-09-11T01:53:21.783840","MEAN_MOTION":13.21824112,"ECCENTRICITY":0.00018686,"INCLINATION":87.921,"RA_OF_ASC_NODE":299.7003,"ARG_OF_PERICENTER":96.7624,"MEAN_ANOMALY":263.3722,"EPHEMERIS_TYPE":0,"CLASSIFICATION_TYPE":"U","NORAD_CAT_ID":54642,"ELEMENT_SET_NO":999,"REV_AT_EPOCH":13466,"BSTAR":0.00017272504,"MEAN_MOTION_DOT":8.4e-7,"MEAN_MOTION_DDOT":0},{"OBJECT_NAME":"ONEWEB-0528","OBJECT_ID":"2022-166B","EPOCH":"2025-09-10T20:35:25.196928","MEAN_MOTION":13.21822175,"ECCENTRICITY":0.00018516,"INCLINATION":87.9217,"RA_OF_ASC_NODE":299.7466,"ARG_OF_PERICENTER":95.8948,"MEAN_ANOMALY":264.2397,"EPHEMERIS_TYPE":0,"CLASSIFICATION_TYPE":"U","NORAD_CAT_ID":54643,"ELEMENT_SET_NO":999,"REV_AT_EPOCH":13464,"BSTAR":0.00021638481,"MEAN_MOTION_DOT":1.02e-6,"MEAN_MOTION_DDOT":0},{"OBJECT_NAME":"ONEWEB-0539","OBJECT_ID":"2022-166C","EPOCH":"2025-09-10T21:27:42.701472","MEAN_MOTION":13.21825073,"ECCENTRICITY":0.00019918,"INCLINATION":87.9206,"RA_OF_ASC_NODE":299.7076,"ARG_OF_PERICENTER":89.6237,"MEAN_ANOMALY":270.5126,"EPHEMERIS_TYPE":0,"CLASSIFICATION_TYPE":"U","NORAD_CAT_ID":54644,"ELEMENT_SET_NO":999,"REV_AT_EPOCH":13464,"BSTAR":0.00013102218,"MEAN_MOTION_DOT":6.7e-7,"MEAN_MOTION_DDOT":0},{"OBJECT_NAME":"ONEWEB-0540","OBJECT_ID":"2022-166D","EPOCH":"2025-09-11T01:14:58.725312","MEAN_MOTION":13.21824528,"ECCENTRICITY":0.00020284,"INCLINATION":87.9209,"RA_OF_ASC_NODE":299.7128,"ARG_OF_PERICENTER":88.7702,"MEAN_ANOMALY":271.3664,"EPHEMERIS_TYPE":0,"CLASSIFICATION_TYPE":"U","NORAD_CAT_ID":54645,"ELEMENT_SET_NO":999,"REV_AT_EPOCH":13465,"BSTAR":-2.8878871e-5,"MEAN_MOTION_DOT":1.0e-8,"MEAN_MOTION_DDOT":0},{"OBJECT_NAME":"ONEWEB-0542","OBJECT_ID":"2022-166E","EPOCH":"2025-09-11T03:08:18.752640","MEAN_MOTION":13.21823729,"ECCENTRICITY":0.0002178,"INCLINATION":87.9205,"RA_OF_ASC_NODE":299.6574,"ARG_OF_PERICENTER":87.8932,"MEAN_ANOMALY":272.2451,"EPHEMERIS_TYPE":0,"CLASSIFICATION_TYPE":"U","NORAD_CAT_ID":54646,"ELEMENT_SET_NO":999,"REV_AT_EPOCH":13467,"BSTAR":7.4633067e-5,"MEAN_MOTION_DOT":4.4e-7,"MEAN_MOTION_DDOT":0},{"OBJECT_NAME":"ONEWEB-0545","OBJECT_ID":"2022-166F","EPOCH":"2025-09-10T15:26:34.978560","MEAN_MOTION":13.21822654,"ECCENTRICITY":0.00021368,"INCLINATION":87.9213,"RA_OF_ASC_NODE":299.7738,"ARG_OF_PERICENTER":81.1262,"MEAN_ANOMALY":279.0114,"EPHEMERIS_TYPE":0,"CLASSIFICATION_TYPE":"U","NORAD_CAT_ID":54647,"ELEMENT_SET_NO":999,"REV_AT_EPOCH":13457,"BSTAR":-5.3303992e-5,"MEAN_MOTION_DOT":-9.0e-8,"MEAN_MOTION_DDOT":0},{"OBJECT_NAME":"ONEWEB-0580","OBJECT_ID":"2022-166G","EPOCH":"2025-09-11T01:42:02.198592","MEAN_MOTION":13.21824132,"ECCENTRICITY":0.00022543,"INCLINATION":87.9212,"RA_OF_ASC_NODE":299.6865,"ARG_OF_PERICENTER":89.0429,"MEAN_ANOMALY":271.0963,"EPHEMERIS_TYPE":0,"CLASSIFICATION_TYPE":"U","NORAD_CAT_ID":54648,"ELEMENT_SET_NO":999,"REV_AT_EPOCH":13467,"BSTAR":0.00013430307,"MEAN_MOTION_DOT":6.8e-7,"MEAN_MOTION_DDOT":0},{"OBJECT_NAME":"ONEWEB-0582","OBJECT_ID":"2022-166H","EPOCH":"2025-09-11T02:43:19.706592","MEAN_MOTION":13.21822837,"ECCENTRICITY":0.00023267,"INCLINATION":87.9203,"RA_OF_ASC_NODE":299.6725,"ARG_OF_PERICENTER":86.7736,"MEAN_ANOMALY":273.3664,"EPHEMERIS_TYPE":0,"CLASSIFICATION_TYPE":"U","NORAD_CAT_ID":54649,"ELEMENT_SET_NO":999,"REV_AT_EPOCH":13465,"BSTAR":-4.9389308e-5,"MEAN_MOTION_DOT":-7.0e-8,"MEAN_MOTION_DDOT":0}]
